#aV2024 12 12  0  0  0.00000000     288 DD+AD WGS84 FIT  NGA
## 2344 345600.00000000   300.00000000 60656 0.0000000000000
+   31     2  3  4  5  6  7  8  9 10 11 12 13 14 15 16 17 18
+         19 20 21 22 23 24 25 26 27 28 29 30 31 32  0  0  0
+          0  0  0  0  0  0  0  0  0  0  0  0  0  0  0  0  0
+          0  0  0  0  0  0  0  0  0  0  0  0  0  0  0  0  0
+          0  0  0  0  0  0  0  0  0  0  0  0  0  0  0  0  0
++         2  2  2  2  2  2  2  2  2  2  2  2  2  2  2  2  2
++         2  2  2  2  2  2  2  2  2  2  2  2  2  2  0  0  0
++         0  0  0  0  0  0  0  0  0  0  0  0  0  0  0  0  0
++         0  0  0  0  0  0  0  0  0  0  0  0  0  0  0  0  0
++         0  0  0  0  0  0  0  0  0  0  0  0  0  0  0  0  0
%c cc cc ccc ccc cccc cccc cccc cccc ccccc ccccc ccccc ccccc
%c cc cc ccc ccc cccc cccc cccc cccc ccccc ccccc ccccc ccccc
%f  0.0000000  0.000000000  0.00000000000  0.000000000000000
%f  0.0000000  0.000000000  0.00000000000  0.000000000000000
%i    0    0    0    0      0      0      0      0         0
%i    0    0    0    0      0      0      0      0         0
/*      NGA, ST. LOUIS,MO.                                  
/*   EPHEMERIS COMPUTED FROM 2 DAYS OF DATA                 
/*   EPOCHA v9 SMOOTHER                                     
/*   G2296 IERS2010 SATIGS SATAPC                           
*  2024 12 12  4 45  0.00000000
P  2  19638.294105  13439.280977 -11705.222703   -293.998198                    
V  2 -15483.700589  -1852.968128 -26658.725772      0.088331                    
P  3  12208.626630  19701.844650  12905.907205    622.511882                    
V  3   1403.893356  16585.013970 -26203.747240      0.090021                    
P  4  13120.026257   8524.790904  21497.532117    494.454617                    
V  4 -21017.605848  17300.489154   5822.200198      0.062007                    
P  5  -5306.621028 -25952.624026   1202.884003   -195.749476                    
V  5   2779.728943   1131.152293  32049.788044     -0.011367                    
P  6  15445.856660  -8321.123232  20053.101177    -37.646175                    
V  6  23343.814101   9491.185855 -13978.670542     -0.288784                    
P  7  25675.908389   6972.587388  -2726.701694    -15.922700                    
V  7   2906.621652   3994.722352  30972.509402      0.013595                    
P  8   3237.947540  16798.080064 -20328.596070    436.381312                    
V  8 -19720.851969  16513.988437  11016.268648      0.091073                    
P  9  19352.974267   -387.137868  18122.878709    483.359766                    
V  9 -16162.892782  16685.242814  17461.269241      0.162708                    
P 10 -11255.064646  12560.309659 -20195.302036   -231.005197                    
V 10  -5698.116020 -25578.391747 -12917.188839     -0.152822                    
P 11   1846.995870 -15382.028762  21619.058969   -752.525540                    
V 11  25474.520935   9917.353948   4829.418854     -0.004469                    
P 12  -9469.237230 -22743.241954   9702.501362   -557.822847                    
V 12   1049.489336 -12926.483970 -28390.151033     -0.023559                    
P 13   6912.577417 -18669.875022 -17694.530176    689.630199                    
V 13  19454.282904 -10533.944307  19197.602327      0.014543                    
P 14  13895.722357  -8529.449956 -20882.581812    558.419989                    
V 14   5235.784428  26220.390159  -7442.924482      0.076790                    
P 15  -5795.160035 -16453.612929 -20517.235422    238.549924                    
V 15  17056.249970 -18340.053882  10297.834408      0.045585                    
P 16  -1201.272940  25672.925662   5321.782001   -105.457929                    
V 16  -3867.664463  -6947.218405  31069.108947      0.096136                    
P 17  22672.297024 -13024.479156  -4819.100544    522.680605                    
V 17  -3761.143874   5968.359460 -30959.462237     -0.158714                    
P 18 -25463.312744  -5089.797796  -6099.909801   -660.391575                    
V 18  -6493.926832  -4696.178109  30644.568215      0.003808                    
P 19  19355.100549 -17216.585240   4556.001742    572.999763                    
V 19   6669.259512   -958.832426 -31427.081438      0.042400                    
P 20   1081.389864 -23166.172809  13153.964814    367.965408                    
V 20   7979.233528  14640.685032  25151.803959     -0.003167                    
P 21  14568.092983  15376.364567 -16277.457562     95.401352                    
V 21 -20666.773584  -3814.344079 -20514.089151      0.028125                    
P 22  10476.881368 -17057.838986 -17219.730624    -85.778754                    
V 22   3778.741817  22256.882357 -19012.388999     -0.024879                    
P 23 -15310.111655  -3013.152869 -21488.305549    381.771296                    
V 23  -5331.982086 -26753.800203   7312.720400      0.077406                    
P 24 -17444.142045 -14973.420843 -14104.969165   -474.141018                    
V 24  17128.432364   1710.508536 -23391.554054      0.030011                    
P 25 -15590.702973 -11106.437563  18166.948691    498.190236                    
V 25  -3227.164957 -23573.536076 -16592.591547     -0.004042                    
P 26  -6483.705766  20156.967920  15617.868555     -5.715450                    
V 26  -8209.827717 -18894.836357  21127.936823     -0.139758                    
P 27  -7976.766583  20639.455646 -14666.719949    -34.252227                    
V 27 -15289.853816  10288.103320  23701.561654      0.003142                    
P 28 -17150.899786   8153.730044  18556.745743   -505.697677                    
V 28 -22036.708956  -8550.267450 -16592.676836     -0.108206                    
P 29 -19363.731455  -1254.151675  18149.213861   -556.651334                    
V 29  17771.661269 -14768.462350  17776.375899      0.031361                    
P 30  22667.398381  -2742.628078 -13641.703291   -263.139936                    
V 30  15673.700909   8283.890224  23844.452748      0.080979                    
P 31  -7560.648696  13392.559574  21427.160314   -220.137970                    
V 31 -25967.176189  -9920.772429  -2568.898251      0.007287                    
P 32 -20729.370722  16270.803152  -2028.109796   -560.384343                    
V 32    233.871016  -4077.046025 -31811.916279      0.060144                    
EOF
